ORBVIEW 2 (SEASTAR)     
1 24883U 97037A   25326.42162461  .00000336  00000+0  13323-3 0  9991
2 24883  98.8452 122.9860 0002648  38.7354 321.4020 14.35395009493086
SL-16 R/B               
1 25400U 98043G   25326.45060248  .00000096  00000+0  59031-4 0  9998
2 25400  98.8092 274.1585 0009327 331.3750  28.6917 14.26018353423706
SL-16 R/B               
1 25407U 98045B   25326.56339913  .00000131  00000+0  90498-4 0  9999
2 25407  71.0124  46.8560 0008165 205.0709 155.0019 14.16169119411935
ISS (ZARYA)             
1 25544U 98067A   25326.28671477  .00015903  00000+0  29634-3 0  9994
2 25544  51.6321 243.7129 0003927 154.7163 205.4019 15.48986583539685
CZ-4B R/B               
1 25732U 99025C   25326.58310514  .00000087  00000+0  62854-4 0  9992
2 25732  98.6797   8.3112 0036083 293.6005 184.2683 14.18236382372986
OKEAN-O                 
1 25860U 99039A   25326.17080117  .00000869  00000+0  12149-3 0  9996
2 25860  97.9631  22.0480 0001147  68.2179 291.9155 14.80111113418488
SL-16 R/B               
1 25861U 99039B   25326.11816061  .00000660  00000+0  90981-4 0  9996
2 25861  98.0154  20.2653 0013604 244.2406 115.7403 14.81542979420934
DELTA 2 R/B             
1 25876U 99041E   25326.53153568  .00001014  00000+0  20290-3 0  9996
2 25876  51.7631   9.1101 0504895  32.2184 330.8563 14.11327771347899
HELIOS 1B               
1 25977U 99064A   25326.21561694  .00002087  00000+0  23864-3 0  9992
2 25977  98.1754 220.2742 0002488  70.8346 289.3138 14.87161655669284
TERRA                   
1 25994U 99068A   25326.60905536  .00000547  00000+0  12086-3 0  9998
2 25994  97.9775  19.0288 0002985 139.1463 340.7802 14.60918858379445
SL-16 R/B               
1 26070U 00006B   25326.40973665 -.00000028  00000+0  10155-4 0  9995
2 26070  71.0018 323.4048 0017360 337.1754  22.8595 14.15801195333370
TITAN 4B R/B            
1 26474U 00047B   25326.52231829  .00003621  00000+0  23529-3 0  9999
2 26474  67.9901 341.6274 0040713 168.5420 191.6666 15.08571977376747
