CCSDS_OMM_VERS = 2.0
CREATION_DATE  = 
ORIGINATOR     = 

OBJECT_NAME    = ORBVIEW 2 (SEASTAR)
OBJECT_ID      = 1997-037A
CENTER_NAME    = EARTH
REF_FRAME      = TEME
TIME_SYSTEM    = UTC
MEAN_ELEMENT_THEORY = SGP/SGP4

EPOCH          = 2025-11-22T10:07:08.366304
MEAN_MOTION    = 14.35395009
ECCENTRICITY   = .00026488
INCLINATION    = 98.8452
RA_OF_ASC_NODE = 122.9860
ARG_OF_PERICENTER = 38.7354
MEAN_ANOMALY   = 321.4020

EPHEMERIS_TYPE = 0
CLASSIFICATION_TYPE = U
NORAD_CAT_ID   = 24883
ELEMENT_SET_NO = 999
REV_AT_EPOCH   = 49308
BSTAR          = .13322621E-3
MEAN_MOTION_DOT = .336E-5
MEAN_MOTION_DDOT = 0

CCSDS_OMM_VERS = 2.0
CREATION_DATE  = 
ORIGINATOR     = 

OBJECT_NAME    = SL-16 R/B
OBJECT_ID      = 1998-043G
CENTER_NAME    = EARTH
REF_FRAME      = TEME
TIME_SYSTEM    = UTC
MEAN_ELEMENT_THEORY = SGP/SGP4

EPOCH          = 2025-11-22T10:48:52.054272
MEAN_MOTION    = 14.26018353
ECCENTRICITY   = .00093272
INCLINATION    = 98.8092
RA_OF_ASC_NODE = 274.1585
ARG_OF_PERICENTER = 331.3750
MEAN_ANOMALY   = 28.6917

EPHEMERIS_TYPE = 0
CLASSIFICATION_TYPE = U
NORAD_CAT_ID   = 25400
ELEMENT_SET_NO = 999
REV_AT_EPOCH   = 42370
BSTAR          = .59030648E-4
MEAN_MOTION_DOT = .96E-6
MEAN_MOTION_DDOT = 0

CCSDS_OMM_VERS = 2.0
CREATION_DATE  = 
ORIGINATOR     = 

OBJECT_NAME    = SL-16 R/B
OBJECT_ID      = 1998-045B
CENTER_NAME    = EARTH
REF_FRAME      = TEME
TIME_SYSTEM    = UTC
MEAN_ELEMENT_THEORY = SGP/SGP4

EPOCH          = 2025-11-22T13:31:17.684832
MEAN_MOTION    = 14.16169119
ECCENTRICITY   = .00081657
INCLINATION    = 71.0124
RA_OF_ASC_NODE = 46.8560
ARG_OF_PERICENTER = 205.0709
MEAN_ANOMALY   = 155.0019

EPHEMERIS_TYPE = 0
CLASSIFICATION_TYPE = U
NORAD_CAT_ID   = 25407
ELEMENT_SET_NO = 999
REV_AT_EPOCH   = 41193
BSTAR          = .90498396E-4
MEAN_MOTION_DOT = .131E-5
MEAN_MOTION_DDOT = 0

CCSDS_OMM_VERS = 2.0
CREATION_DATE  = 
ORIGINATOR     = 

OBJECT_NAME    = ISS (ZARYA)
OBJECT_ID      = 1998-067A
CENTER_NAME    = EARTH
REF_FRAME      = TEME
TIME_SYSTEM    = UTC
MEAN_ELEMENT_THEORY = SGP/SGP4

EPOCH          = 2025-11-22T06:52:52.156128
MEAN_MOTION    = 15.48986583
ECCENTRICITY   = .00039276
INCLINATION    = 51.6321
RA_OF_ASC_NODE = 243.7129
ARG_OF_PERICENTER = 154.7163
MEAN_ANOMALY   = 205.4019

EPHEMERIS_TYPE = 0
CLASSIFICATION_TYPE = U
NORAD_CAT_ID   = 25544
ELEMENT_SET_NO = 999
REV_AT_EPOCH   = 53968
BSTAR          = .29633503E-3
MEAN_MOTION_DOT = .15903E-3
MEAN_MOTION_DDOT = 0

CCSDS_OMM_VERS = 2.0
CREATION_DATE  = 
ORIGINATOR     = 

OBJECT_NAME    = CZ-4B R/B
OBJECT_ID      = 1999-025C
CENTER_NAME    = EARTH
REF_FRAME      = TEME
TIME_SYSTEM    = UTC
MEAN_ELEMENT_THEORY = SGP/SGP4

EPOCH          = 2025-11-22T13:59:40.284096
MEAN_MOTION    = 14.18236382
ECCENTRICITY   = .00360836
INCLINATION    = 98.6797
RA_OF_ASC_NODE = 8.3112
ARG_OF_PERICENTER = 293.6005
MEAN_ANOMALY   = 184.2683

EPHEMERIS_TYPE = 0
CLASSIFICATION_TYPE = U
NORAD_CAT_ID   = 25732
ELEMENT_SET_NO = 999
REV_AT_EPOCH   = 37298
BSTAR          = .62853979E-4
MEAN_MOTION_DOT = .87E-6
MEAN_MOTION_DDOT = 0

CCSDS_OMM_VERS = 2.0
CREATION_DATE  = 
ORIGINATOR     = 

OBJECT_NAME    = OKEAN-O
OBJECT_ID      = 1999-039A
CENTER_NAME    = EARTH
REF_FRAME      = TEME
TIME_SYSTEM    = UTC
MEAN_ELEMENT_THEORY = SGP/SGP4

EPOCH          = 2025-11-22T04:05:57.221088
MEAN_MOTION    = 14.80111113
ECCENTRICITY   = .00011479
INCLINATION    = 97.9631
RA_OF_ASC_NODE = 22.0480
ARG_OF_PERICENTER = 68.2179
MEAN_ANOMALY   = 291.9155

EPHEMERIS_TYPE = 0
CLASSIFICATION_TYPE = U
NORAD_CAT_ID   = 25860
ELEMENT_SET_NO = 999
REV_AT_EPOCH   = 41848
BSTAR          = .12148766E-3
MEAN_MOTION_DOT = .869E-5
MEAN_MOTION_DDOT = 0

CCSDS_OMM_VERS = 2.0
CREATION_DATE  = 
ORIGINATOR     = 

OBJECT_NAME    = SL-16 R/B
OBJECT_ID      = 1999-039B
CENTER_NAME    = EARTH
REF_FRAME      = TEME
TIME_SYSTEM    = UTC
MEAN_ELEMENT_THEORY = SGP/SGP4

EPOCH          = 2025-11-22T02:50:09.076704
MEAN_MOTION    = 14.81542979
ECCENTRICITY   = .00136046
INCLINATION    = 98.0154
RA_OF_ASC_NODE = 20.2653
ARG_OF_PERICENTER = 244.2406
MEAN_ANOMALY   = 115.7403

EPHEMERIS_TYPE = 0
CLASSIFICATION_TYPE = U
NORAD_CAT_ID   = 25861
ELEMENT_SET_NO = 999
REV_AT_EPOCH   = 42093
BSTAR          = .9098134E-4
MEAN_MOTION_DOT = .66E-5
MEAN_MOTION_DDOT = 0

CCSDS_OMM_VERS = 2.0
CREATION_DATE  = 
ORIGINATOR     = 

OBJECT_NAME    = DELTA 2 R/B
OBJECT_ID      = 1999-041E
CENTER_NAME    = EARTH
REF_FRAME      = TEME
TIME_SYSTEM    = UTC
MEAN_ELEMENT_THEORY = SGP/SGP4

EPOCH          = 2025-11-22T12:45:24.682752
MEAN_MOTION    = 14.11327771
ECCENTRICITY   = .05048957
INCLINATION    = 51.7631
RA_OF_ASC_NODE = 9.1101
ARG_OF_PERICENTER = 32.2184
MEAN_ANOMALY   = 330.8563

EPHEMERIS_TYPE = 0
CLASSIFICATION_TYPE = U
NORAD_CAT_ID   = 25876
ELEMENT_SET_NO = 999
REV_AT_EPOCH   = 34789
BSTAR          = .20290314E-3
MEAN_MOTION_DOT = .1014E-4
MEAN_MOTION_DDOT = 0

CCSDS_OMM_VERS = 2.0
CREATION_DATE  = 
ORIGINATOR     = 

OBJECT_NAME    = HELIOS 1B
OBJECT_ID      = 1999-064A
CENTER_NAME    = EARTH
REF_FRAME      = TEME
TIME_SYSTEM    = UTC
MEAN_ELEMENT_THEORY = SGP/SGP4

EPOCH          = 2025-11-22T05:10:29.303616
MEAN_MOTION    = 14.87161655
ECCENTRICITY   = .00024886
INCLINATION    = 98.1754
RA_OF_ASC_NODE = 220.2742
ARG_OF_PERICENTER = 70.8346
MEAN_ANOMALY   = 289.3138

EPHEMERIS_TYPE = 0
CLASSIFICATION_TYPE = U
NORAD_CAT_ID   = 25977
ELEMENT_SET_NO = 999
REV_AT_EPOCH   = 66928
BSTAR          = .23863822E-3
MEAN_MOTION_DOT = .2087E-4
MEAN_MOTION_DDOT = 0

CCSDS_OMM_VERS = 2.0
CREATION_DATE  = 
ORIGINATOR     = 

OBJECT_NAME    = TERRA
OBJECT_ID      = 1999-068A
CENTER_NAME    = EARTH
REF_FRAME      = TEME
TIME_SYSTEM    = UTC
MEAN_ELEMENT_THEORY = SGP/SGP4

EPOCH          = 2025-11-22T14:37:02.383104
MEAN_MOTION    = 14.60918858
ECCENTRICITY   = .0002985
INCLINATION    = 97.9775
RA_OF_ASC_NODE = 19.0288
ARG_OF_PERICENTER = 139.1463
MEAN_ANOMALY   = 340.7802

EPHEMERIS_TYPE = 0
CLASSIFICATION_TYPE = U
NORAD_CAT_ID   = 25994
ELEMENT_SET_NO = 999
REV_AT_EPOCH   = 37944
BSTAR          = .12086234E-3
MEAN_MOTION_DOT = .547E-5
MEAN_MOTION_DDOT = 0

CCSDS_OMM_VERS = 2.0
CREATION_DATE  = 
ORIGINATOR     = 

OBJECT_NAME    = SL-16 R/B
OBJECT_ID      = 2000-006B
CENTER_NAME    = EARTH
REF_FRAME      = TEME
TIME_SYSTEM    = UTC
MEAN_ELEMENT_THEORY = SGP/SGP4

EPOCH          = 2025-11-22T09:50:01.246560
MEAN_MOTION    = 14.15801195
ECCENTRICITY   = .00173604
INCLINATION    = 71.0018
RA_OF_ASC_NODE = 323.4048
ARG_OF_PERICENTER = 337.1754
MEAN_ANOMALY   = 22.8595

EPHEMERIS_TYPE = 0
CLASSIFICATION_TYPE = U
NORAD_CAT_ID   = 26070
ELEMENT_SET_NO = 999
REV_AT_EPOCH   = 33337
BSTAR          = .10155431E-4
MEAN_MOTION_DOT = -.28E-6
MEAN_MOTION_DDOT = 0

CCSDS_OMM_VERS = 2.0
CREATION_DATE  = 
ORIGINATOR     = 

OBJECT_NAME    = TITAN 4B R/B
OBJECT_ID      = 2000-047B
CENTER_NAME    = EARTH
REF_FRAME      = TEME
TIME_SYSTEM    = UTC
MEAN_ELEMENT_THEORY = SGP/SGP4

EPOCH          = 2025-11-22T12:32:08.300256
MEAN_MOTION    = 15.08571977
ECCENTRICITY   = .00407138
INCLINATION    = 67.9901
RA_OF_ASC_NODE = 341.6274
ARG_OF_PERICENTER = 168.5420
MEAN_ANOMALY   = 191.6666

EPHEMERIS_TYPE = 0
CLASSIFICATION_TYPE = U
NORAD_CAT_ID   = 26474
ELEMENT_SET_NO = 999
REV_AT_EPOCH   = 37674
BSTAR          = .23528882E-3
MEAN_MOTION_DOT = .3621E-4
MEAN_MOTION_DDOT = 0

